CCSDS_OMM_VERS = 2.0
CREATION_DATE  = 
ORIGINATOR     = 

OBJECT_NAME    = STARLINK-36721
OBJECT_ID      = 2026-036N
CENTER_NAME    = EARTH
REF_FRAME      = TEME
TIME_SYSTEM    = UTC
MEAN_ELEMENT_THEORY = SGP/SGP4

EPOCH          = 2026-03-24T06:00:02.000160
MEAN_MOTION    = 15.34966079
ECCENTRICITY   = .00015319
INCLINATION    = 42.9999
RA_OF_ASC_NODE = 163.0221
ARG_OF_PERICENTER = 259.8845
MEAN_ANOMALY   = 291.1265

EPHEMERIS_TYPE = 0
CLASSIFICATION_TYPE = U
NORAD_CAT_ID   = 67916
ELEMENT_SET_NO = 999
REV_AT_EPOCH   = 598
BSTAR          = -.70339642E-1
MEAN_MOTION_DOT = -.2186198E-1
MEAN_MOTION_DDOT = 0

CCSDS_OMM_VERS = 2.0
CREATION_DATE  = 
ORIGINATOR     = 

OBJECT_NAME    = STARLINK-36722
OBJECT_ID      = 2026-036P
CENTER_NAME    = EARTH
REF_FRAME      = TEME
TIME_SYSTEM    = UTC
MEAN_ELEMENT_THEORY = SGP/SGP4

EPOCH          = 2026-03-24T06:00:02.000160
MEAN_MOTION    = 15.35756586
ECCENTRICITY   = .00014112
INCLINATION    = 42.9998
RA_OF_ASC_NODE = 162.7756
ARG_OF_PERICENTER = 263.2289
MEAN_ANOMALY   = 27.3381

EPHEMERIS_TYPE = 0
CLASSIFICATION_TYPE = U
NORAD_CAT_ID   = 67917
ELEMENT_SET_NO = 999
REV_AT_EPOCH   = 598
BSTAR          = -.67492251E-1
MEAN_MOTION_DOT = -.2155359E-1
MEAN_MOTION_DDOT = 0

CCSDS_OMM_VERS = 2.0
CREATION_DATE  = 
ORIGINATOR     = 

OBJECT_NAME    = STARLINK-36341
OBJECT_ID      = 2026-036Q
CENTER_NAME    = EARTH
REF_FRAME      = TEME
TIME_SYSTEM    = UTC
MEAN_ELEMENT_THEORY = SGP/SGP4

EPOCH          = 2026-03-24T06:00:02.000160
MEAN_MOTION    = 15.43900137
ECCENTRICITY   = .00009258
INCLINATION    = 43.0001
RA_OF_ASC_NODE = 163.7471
ARG_OF_PERICENTER = 275.4611
MEAN_ANOMALY   = 343.9333

EPHEMERIS_TYPE = 0
CLASSIFICATION_TYPE = U
NORAD_CAT_ID   = 67918
ELEMENT_SET_NO = 999
REV_AT_EPOCH   = 598
BSTAR          = -.4476744E-1
MEAN_MOTION_DOT = -.1870353E-1
MEAN_MOTION_DDOT = 0

CCSDS_OMM_VERS = 2.0
CREATION_DATE  = 
ORIGINATOR     = 

OBJECT_NAME    = STARLINK-36663
OBJECT_ID      = 2026-036R
CENTER_NAME    = EARTH
REF_FRAME      = TEME
TIME_SYSTEM    = UTC
MEAN_ELEMENT_THEORY = SGP/SGP4

EPOCH          = 2026-03-24T06:00:02.000160
MEAN_MOTION    = 15.34333336
ECCENTRICITY   = .00015621
INCLINATION    = 42.9989
RA_OF_ASC_NODE = 163.0031
ARG_OF_PERICENTER = 255.4465
MEAN_ANOMALY   = 303.1335

EPHEMERIS_TYPE = 0
CLASSIFICATION_TYPE = U
NORAD_CAT_ID   = 67919
ELEMENT_SET_NO = 999
REV_AT_EPOCH   = 598
BSTAR          = -.71799721E-1
MEAN_MOTION_DOT = -.2186586E-1
MEAN_MOTION_DDOT = 0

CCSDS_OMM_VERS = 2.0
CREATION_DATE  = 
ORIGINATOR     = 

OBJECT_NAME    = STARLINK-36375
OBJECT_ID      = 2026-036S
CENTER_NAME    = EARTH
REF_FRAME      = TEME
TIME_SYSTEM    = UTC
MEAN_ELEMENT_THEORY = SGP/SGP4

EPOCH          = 2026-03-24T06:00:02.000160
MEAN_MOTION    = 15.31529927
ECCENTRICITY   = .00012261
INCLINATION    = 42.9994
RA_OF_ASC_NODE = 163.4810
ARG_OF_PERICENTER = 312.8165
MEAN_ANOMALY   = 51.5503

EPHEMERIS_TYPE = 0
CLASSIFICATION_TYPE = U
NORAD_CAT_ID   = 67920
ELEMENT_SET_NO = 999
REV_AT_EPOCH   = 598
BSTAR          = -.80102792E-1
MEAN_MOTION_DOT = -.2226388E-1
MEAN_MOTION_DDOT = 0

CCSDS_OMM_VERS = 2.0
CREATION_DATE  = 
ORIGINATOR     = 

OBJECT_NAME    = STARLINK-36405
OBJECT_ID      = 2026-036T
CENTER_NAME    = EARTH
REF_FRAME      = TEME
TIME_SYSTEM    = UTC
MEAN_ELEMENT_THEORY = SGP/SGP4

EPOCH          = 2026-03-23T08:38:52.256256
MEAN_MOTION    = 15.50091528
ECCENTRICITY   = .00017591
INCLINATION    = 42.9985
RA_OF_ASC_NODE = 168.8648
ARG_OF_PERICENTER = 253.3939
MEAN_ANOMALY   = 106.6728

EPHEMERIS_TYPE = 0
CLASSIFICATION_TYPE = U
NORAD_CAT_ID   = 67921
ELEMENT_SET_NO = 999
REV_AT_EPOCH   = 580
BSTAR          = -.50006338E-2
MEAN_MOTION_DOT = -.278644E-2
MEAN_MOTION_DDOT = 0

CCSDS_OMM_VERS = 2.0
CREATION_DATE  = 
ORIGINATOR     = 

OBJECT_NAME    = STARLINK-36383
OBJECT_ID      = 2026-036U
CENTER_NAME    = EARTH
REF_FRAME      = TEME
TIME_SYSTEM    = UTC
MEAN_ELEMENT_THEORY = SGP/SGP4

EPOCH          = 2026-03-23T14:06:14.984352
MEAN_MOTION    = 15.81982911
ECCENTRICITY   = .0002827
INCLINATION    = 42.9998
RA_OF_ASC_NODE = 164.4440
ARG_OF_PERICENTER = 281.9711
MEAN_ANOMALY   = 78.0844

EPHEMERIS_TYPE = 0
CLASSIFICATION_TYPE = U
NORAD_CAT_ID   = 67922
ELEMENT_SET_NO = 999
REV_AT_EPOCH   = 587
BSTAR          = .74183561E-3
MEAN_MOTION_DOT = .158332E-2
MEAN_MOTION_DDOT = 0

CCSDS_OMM_VERS = 2.0
CREATION_DATE  = 
ORIGINATOR     = 

OBJECT_NAME    = STARLINK-36406
OBJECT_ID      = 2026-036V
CENTER_NAME    = EARTH
REF_FRAME      = TEME
TIME_SYSTEM    = UTC
MEAN_ELEMENT_THEORY = SGP/SGP4

EPOCH          = 2026-03-23T13:45:55.702368
MEAN_MOTION    = 15.50624435
ECCENTRICITY   = .00028115
INCLINATION    = 43.0005
RA_OF_ASC_NODE = 167.8927
ARG_OF_PERICENTER = 249.0572
MEAN_ANOMALY   = 110.9987

EPHEMERIS_TYPE = 0
CLASSIFICATION_TYPE = U
NORAD_CAT_ID   = 67923
ELEMENT_SET_NO = 999
REV_AT_EPOCH   = 583
BSTAR          = .52451574E-3
MEAN_MOTION_DOT = .30602E-3
MEAN_MOTION_DDOT = 0

CCSDS_OMM_VERS = 2.0
CREATION_DATE  = 
ORIGINATOR     = 

OBJECT_NAME    = STARLINK-36714
OBJECT_ID      = 2026-036W
CENTER_NAME    = EARTH
REF_FRAME      = TEME
TIME_SYSTEM    = UTC
MEAN_ELEMENT_THEORY = SGP/SGP4

EPOCH          = 2026-03-24T06:00:02.000160
MEAN_MOTION    = 15.35862663
ECCENTRICITY   = .000117
INCLINATION    = 42.9997
RA_OF_ASC_NODE = 163.2381
ARG_OF_PERICENTER = 287.0465
MEAN_ANOMALY   = 175.9418

EPHEMERIS_TYPE = 0
CLASSIFICATION_TYPE = U
NORAD_CAT_ID   = 67924
ELEMENT_SET_NO = 999
REV_AT_EPOCH   = 598
BSTAR          = -.67359342E-1
MEAN_MOTION_DOT = -.2158081E-1
MEAN_MOTION_DDOT = 0

CCSDS_OMM_VERS = 2.0
CREATION_DATE  = 
ORIGINATOR     = 

OBJECT_NAME    = STARLINK-36726
OBJECT_ID      = 2026-036X
CENTER_NAME    = EARTH
REF_FRAME      = TEME
TIME_SYSTEM    = UTC
MEAN_ELEMENT_THEORY = SGP/SGP4

EPOCH          = 2026-03-23T22:30:48.872160
MEAN_MOTION    = 15.50590481
ECCENTRICITY   = .00008237
INCLINATION    = 43.0000
RA_OF_ASC_NODE = 165.4573
ARG_OF_PERICENTER = 346.0075
MEAN_ANOMALY   = 14.0762

EPHEMERIS_TYPE = 0
CLASSIFICATION_TYPE = U
NORAD_CAT_ID   = 67925
ELEMENT_SET_NO = 999
REV_AT_EPOCH   = 589
BSTAR          = .14202465E-2
MEAN_MOTION_DOT = .83909E-3
MEAN_MOTION_DDOT = 0

CCSDS_OMM_VERS = 2.0
CREATION_DATE  = 
ORIGINATOR     = 

OBJECT_NAME    = STARLINK-36758
OBJECT_ID      = 2026-036Y
CENTER_NAME    = EARTH
REF_FRAME      = TEME
TIME_SYSTEM    = UTC
MEAN_ELEMENT_THEORY = SGP/SGP4

EPOCH          = 2026-03-24T06:00:02.000160
MEAN_MOTION    = 15.40493533
ECCENTRICITY   = .000153
INCLINATION    = 42.9989
RA_OF_ASC_NODE = 163.2634
ARG_OF_PERICENTER = 285.4899
MEAN_ANOMALY   = 168.2255

EPHEMERIS_TYPE = 0
CLASSIFICATION_TYPE = U
NORAD_CAT_ID   = 67926
ELEMENT_SET_NO = 999
REV_AT_EPOCH   = 598
BSTAR          = -.49480849E-1
MEAN_MOTION_DOT = -.1845325E-1
MEAN_MOTION_DDOT = 0

CCSDS_OMM_VERS = 2.0
CREATION_DATE  = 
ORIGINATOR     = 

OBJECT_NAME    = STARLINK-36728
OBJECT_ID      = 2026-036Z
CENTER_NAME    = EARTH
REF_FRAME      = TEME
TIME_SYSTEM    = UTC
MEAN_ELEMENT_THEORY = SGP/SGP4

EPOCH          = 2026-03-24T06:00:02.000160
MEAN_MOTION    = 15.38537513
ECCENTRICITY   = .00013259
INCLINATION    = 42.9993
RA_OF_ASC_NODE = 163.0584
ARG_OF_PERICENTER = 294.8106
MEAN_ANOMALY   = 241.6822

EPHEMERIS_TYPE = 0
CLASSIFICATION_TYPE = U
NORAD_CAT_ID   = 67927
ELEMENT_SET_NO = 999
REV_AT_EPOCH   = 598
BSTAR          = -.52935654E-1
MEAN_MOTION_DOT = -.1849418E-1
MEAN_MOTION_DDOT = 0

